ONEWEB-0685             
1 54679U 22166AP  24134.48309912  .00000006  00000+0 -16532-4 0  9995
2 54679  87.9316  36.2013 0001601  77.2613 282.8700 13.21826778 70397
ONEWEB-0712             
1 54680U 22166AQ  24134.40944760 -.00000033  00000+0 -11949-3 0  9992
2 54680  87.9135  21.0210 0002041  93.0976 267.0389 13.16599113 71423
ONEWEB-0714             
1 54681U 22166AR  24134.48940721  .00000027  00000+0  34805-4 0  9992
2 54681  87.9317  36.1856 0001594  78.6905 281.4408 13.21826761 70511
ONEWEB-0532             
1 55140U 23004A   24134.50736992  .00000048  00000+0  89958-4 0  9993
2 55140  87.9173 158.0557 0002204  76.4187 283.7190 13.17648965 66882
ONEWEB-0533             
1 55141U 23004B   24134.49428861 -.00000017  00000+0 -81908-4 0  9990
2 55141  87.8936 142.8818 0001862  92.1888 267.9453 13.12440743 67754
ONEWEB-0541             
1 55142U 23004C   24134.38441466  .00000022  00000+0  26785-4 0  9991
2 55142  87.8984 173.2028 0002018  93.0074 267.1285 13.11558937 65702
ONEWEB-0543             
1 55143U 23004D   24134.48087580  .00000052  00000+0  98225-4 0  9997
2 55143  87.9115 127.7775 0002035  99.5845 260.5517 13.18684948 68919
ONEWEB-0544             
1 55144U 23004E   24134.47455642  .00000040  00000+0  69669-4 0  9992
2 55144  87.9117 127.7634 0002199  88.3199 271.8185 13.18685683 68918
